NORAD_CAT_ID,OBJECT_NAME,OBJECT_TYPE,EPOCH,MEAN_MOTION,ECCENTRICITY,INCLINATION,RA_OF_ASC_NODE,ARG_OF_PERICENTER,MEAN_ANOMALY,BSTAR,MEAN_MOTION_DOT,MEAN_MOTION_DDOT,TLE_LINE0,TLE_LINE1,TLE_LINE2,SEMIMAJOR_AXIS,PERIOD,APOGEE,PERIGEE,DECAYED
51965.0,STARLINK-3696,PAYLOAD,2022-11-28 05:38:18,15.08840858,0.0003159,53.2175,4.718999999999999,21.7938,338.3188,-3.2013e-05,-7.98e-06,0.0,0 STARLINK-3696,1 51965U 22025K   22332.23493854 -.00000798  00000-0 -32013-4 0  9996,2 51965  53.2175   4.7190 0003159  21.7938 338.3188 15.08840858 41512,6917.878000000002,95.438,541.928,537.557,0.0
51965.0,STARLINK-3696,PAYLOAD,2022-11-28 11:59:51,15.08829096,0.0003041,53.2179,3.5294,22.91,337.2028,7.337e-05,8.79e-06,0.0,0 STARLINK-3696,1 51965U 22025K   22332.49990244  .00000879  00000-0  73370-4 0  9998,2 51965  53.2179   3.5294 0003041  22.9100 337.2028 15.08829096 41558,6917.9140000000025,95.438,541.882,537.675,0.0
51965.0,STARLINK-3696,PAYLOAD,2022-11-29 02:18:18,15.08838531,0.0003198,53.2173,0.8529,20.2361,339.8757,0.00013791,1.907e-05,0.0,0 STARLINK-3696,1 51965U 22025K   22333.09605272  .00001907  00000-0  13791-3 0  9992,2 51965  53.2173   0.8529 0003198  20.2361 339.8757 15.08838531 41647,6917.885,95.438,541.962,537.538,0.0
51965.0,STARLINK-3696,PAYLOAD,2022-11-29 05:29:05,15.08839729,0.0003206,53.2172,0.2582,20.6232,339.4889,0.00014506,2.021e-05,0.0,0 STARLINK-3696,1 51965U 22025K   22333.22853226  .00002021  00000-0  14506-3 0  9994,2 51965  53.2172   0.2582 0003206  20.6232 339.4889 15.08839729 40573,6917.880999999999,95.438,541.964,537.528,0.0
51965.0,STARLINK-3696,PAYLOAD,2022-11-29 11:50:38,15.0883422,0.0003043,53.2167,359.069,19.0319,341.0786,8.9771e-05,1.14e-05,0.0,0 STARLINK-3696,1 51965U 22025K   22333.49349763  .00001140  00000-0  89771-4 0  9997,2 51965  53.2167 359.0690 0003043  19.0319 341.0786 15.08834220 41701,6917.898,95.438,541.868,537.658,0.0
51965.0,STARLINK-3696,PAYLOAD,2022-11-30 11:41:25,15.08834258,0.0003193,53.2171,354.6079,21.6728,338.4399,5.3064e-05,5.56e-06,0.0,0 STARLINK-3696,1 51965U 22025K   22334.48710230  .00000556  00000-0  53064-4 0  9994,2 51965  53.2171 354.6079 0003193  21.6728 338.4399 15.08834258 40763,6917.898,95.438,541.972,537.554,0.0
51965.0,STARLINK-3696,PAYLOAD,2022-11-30 18:02:57,15.08840509,0.0003195,53.2178,353.4190000000001,22.5959,337.5174,7.610100000000001e-05,9.23e-06,0.0,0 STARLINK-3696,1 51965U 22025K   22334.75205803  .00000923  00000-0  76101-4 0  9994,2 51965  53.2178 353.4190 0003195  22.5959 337.5174 15.08840509 41891,6917.879,95.438,541.9540000000002,537.534,0.0
51965.0,STARLINK-3696,PAYLOAD,2022-12-01 11:32:12,15.08839561,0.000341,53.2182,350.149,19.6275,340.4848,-5.192100000000001e-05,-1.115e-05,0.0,0 STARLINK-3696,1 51965U 22025K   22335.48070364 -.00001115  00000-0 -51921-4 0  9996,2 51965  53.2182 350.1490 0003410  19.6275 340.4848 15.08839561 40910,6917.882,95.438,542.106,537.388,0.0
51965.0,STARLINK-3696,PAYLOAD,2022-12-01 17:53:44,15.08843923,0.0003244,53.2186,348.9597,25.1732,334.9417,0.00010509,1.384e-05,0.0,0 STARLINK-3696,1 51965U 22025K   22335.74565646  .00001384  00000-0  10509-3 0  9999,2 51965  53.2186 348.9597 0003244  25.1732 334.9417 15.08843923 40953,6917.868,95.437,541.9780000000002,537.489,0.0
51965.0,STARLINK-3696,PAYLOAD,2022-12-02 11:22:59,15.08838172,0.0003184,53.2192,345.6887,34.0332,326.0864,5.911e-05,6.52e-06,0.0,0 STARLINK-3696,1 51965U 22025K   22336.47430170  .00000652  00000-0  59110-4 0  9992,2 51965  53.2192 345.6887 0003184  34.0332 326.0864 15.08838172 42156,6917.886,95.438,541.9540000000002,537.548,0.0
51965.0,STARLINK-3696,PAYLOAD,2022-12-02 17:44:32,15.0883416,0.0003457,53.2173,344.49800000000016,24.4803,335.6352,2.1212e-06,-2.55e-06,0.0,0 STARLINK-3696,1 51965U 22025K   22336.73926648 -.00000255  00000-0  21212-5 0  9994,2 51965  53.2173 344.4980 0003457  24.4803 335.6352 15.08834160 42190,6917.898,95.438,542.155,537.372,0.0
51965.0,STARLINK-3696,PAYLOAD,2022-12-03 06:27:38,15.08825375,0.0003126,53.2181,342.1184,20.4788,339.6329,-4.4778e-05,-1.001e-05,0.0,0 STARLINK-3696,1 51965U 22025K   22337.26919400 -.00001001  00000-0 -44778-4 0  9993,2 51965  53.2181 342.1184 0003126  20.4788 339.6329 15.08825375 42276,6917.925,95.438,541.953,537.628,0.0
51965.0,STARLINK-3696,PAYLOAD,2022-12-03 09:38:25,15.08823798,0.000348,53.2182,341.5228,21.5157,338.5981,-8.543899999999999e-05,-1.648e-05,0.0,0 STARLINK-3696,1 51965U 22025K   22337.40167865 -.00001648  00000-0 -85439-4 0  9995,2 51965  53.2182 341.5228 0003480  21.5157 338.5981 15.08823798 41205,6917.93,95.439,542.202,537.387,0.0
51965.0,STARLINK-3696,PAYLOAD,2022-12-03 17:35:20,15.08831435,0.0003302,53.2169,340.0378,20.4699,339.6424,-6.6652e-05,-1.349e-05,0.0,0 STARLINK-3696,1 51965U 22025K   22337.73287455 -.00001349  00000-0 -66652-4 0  9993,2 51965  53.2169 340.0378 0003302  20.4699 339.6424 15.08831435 41258,6917.906999999997,95.438,542.056,537.487,0.0
51965.0,STARLINK-3696,PAYLOAD,2022-12-04 01:32:15,15.08832503,0.0003208999999999,53.2174,338.5497,17.4679,342.6423,-6.9865e-06,-4e-06,0.0,0 STARLINK-3696,1 51965U 22025K   22338.06407264 -.00000400  00000-0 -69865-5 0  9999,2 51965  53.2174 338.5497 0003209  17.4679 342.6423 15.08832503 42394,6917.903,95.438,541.988,537.548,0.0
51965.0,STARLINK-3696,PAYLOAD,2022-12-04 07:53:48,15.08836665,0.0003394,53.2175,337.3606,21.8234,338.2902,8.7283e-05,1.101e-05,0.0,0 STARLINK-3696,1 51965U 22025K   22338.32902825  .00001101  00000-0  87283-4 0  9991,2 51965  53.2175 337.3606 0003394  21.8234 338.2902 15.08836665 41345,6917.891,95.438,542.104,537.408,0.0
51965.0,STARLINK-3696,PAYLOAD,2022-12-04 17:26:06,15.08844757,0.0003384,53.2177,335.5765,21.97,338.1436,0.00014787,2.066e-05,0.0,0 STARLINK-3696,1 51965U 22025K   22338.72646149  .00002066  00000-0  14787-3 0  9998,2 51965  53.2177 335.5765 0003384  21.9700 338.1436 15.08844757 42490,6917.866,95.437,542.072,537.39,0.0
51965.0,STARLINK-3696,PAYLOAD,2022-12-05 09:19:57,15.08839566,0.0003413,53.2176,332.603,25.8273,334.2889,0.00020773,3.019e-05,0.0,0 STARLINK-3696,1 51965U 22025K   22339.38886470  .00003019  00000-0  20773-3 0  9995,2 51965  53.2176 332.6030 0003413  25.8273 334.2889 15.08839566 42595,6917.882,95.438,542.1080000000002,537.386,0.0
51965.0,STARLINK-3696,PAYLOAD,2022-12-05 17:16:53,15.08840213,0.0003472,53.2174,331.1157,25.7297,334.3868,0.00017312,2.468e-05,0.0,0 STARLINK-3696,1 51965U 22025K   22339.72006507  .00002468  00000-0  17312-3 0  9990,2 51965  53.2174 331.1157 0003472  25.7297 334.3868 15.08840213 41551,6917.88,95.438,542.1469999999998,537.3430000000002,0.0
51965.0,STARLINK-3696,PAYLOAD,2022-12-06 09:10:44,15.08843066,0.000343,53.2176,328.1415,23.8913,336.2238,3.3309e-05,2.41e-06,0.0,0 STARLINK-3696,1 51965U 22025K   22340.38246395  .00000241  00000-0  33309-4 0  9997,2 51965  53.2176 328.1415 0003430  23.8913 336.2238 15.08843066 41656,6917.871,95.437,542.109,537.363,0.0
51965.0,STARLINK-3696,PAYLOAD,2022-12-06 23:29:13,15.08839299,0.0003453,53.2167,325.4652,24.9255,335.1903,-2.8755e-05,-7.47e-06,0.0,0 STARLINK-3696,1 51965U 22025K   22340.97862612 -.00000747  00000-0 -28755-4 0  9990,2 51965  53.2167 325.4652 0003453  24.9255 335.1903 15.08839299 42836,6917.8830000000025,95.438,542.136,537.359,0.0
51965.0,STARLINK-3696,PAYLOAD,2022-12-07 09:01:32,15.08836596,0.000373,53.218,323.6836,19.0756,341.0376,-5.3366e-05,-1.138e-05,0.0,0 STARLINK-3696,1 51965U 22025K   22341.37606981 -.00001138  00000-0 -53366-4 0  9991,2 51965  53.2180 323.6836 0003730  19.0756 341.0376 15.08836596 41807,6917.891,95.438,542.336,537.175,0.0
51965.0,STARLINK-3696,PAYLOAD,2022-12-08 05:41:32,15.08840298,0.0003353,53.2173,319.8177,14.9105,345.1985,-9.3762e-06,-4.38e-06,0.0,0 STARLINK-3696,1 51965U 22025K   22342.23718341 -.00000438  00000-0 -93762-5 0  9998,2 51965  53.2173 319.8177 0003353  14.9105 345.1985 15.08840298 43028,6917.879,95.438,542.064,537.425,0.0
51965.0,STARLINK-3696,PAYLOAD,2022-12-08 10:27:41,15.08841229,0.0003412,53.2178,318.9240000000001,23.4941,336.6207,4.6212e-05,4.47e-06,0.0,0 STARLINK-3696,1 51965U 22025K   22342.43590133  .00000447  00000-0  46212-4 0  9992,2 51965  53.2178 318.9240 0003412  23.4941 336.6207 15.08841229 41961,6917.877,95.437,542.102,537.381,0.0
51965.0,STARLINK-3696,PAYLOAD,2022-12-08 15:13:50,15.08848436,0.0003361,53.2181,318.0314,20.9916,339.1213,9.8679e-05,1.283e-05,0.0,0 STARLINK-3696,1 51965U 22025K   22342.63461391  .00001283  00000-0  98679-4 0  9990,2 51965  53.2181 318.0314 0003361  20.9916 339.1213 15.08848436 43082,6917.855,95.437,542.045,537.395,0.0
51965.0,STARLINK-3696,PAYLOAD,2022-12-09 05:32:22,15.08798646,0.0003596,53.2181,315.3617,351.4391,8.6539,-0.00027219,-4.614e-05,0.0,0 STARLINK-3696,1 51965U 22025K   22343.23081699 -.00004614  00000-0 -27219-3 0  9990,2 51965  53.2181 315.3617 0003596 351.4391   8.6539 15.08798646 43173,6918.007,95.44,542.36,537.384,0.0
51965.0,STARLINK-3696,PAYLOAD,2022-12-10 05:23:08,15.0882532,0.0002838,53.218,310.9021,26.3813,333.7323,-6.1069e-05,-1.26e-05,0.0,0 STARLINK-3696,1 51965U 22025K   22344.22440381 -.00001260  00000-0 -61069-4 0  9993,2 51965  53.2180 310.9021 0002838  26.3813 333.7323 15.08825320 43327,6917.925,95.438,541.754,537.827,0.0
51965.0,STARLINK-3696,PAYLOAD,2022-12-10 08:33:55,15.08814715,0.000293,53.2178,310.3063,16.1378,343.9707,-0.00012408,-2.262e-05,0.0,0 STARLINK-3696,1 51965U 22025K   22344.35689053 -.00002262  00000-0 -12408-3 0  9993,2 51965  53.2178 310.3063 0002930  16.1378 343.9707 15.08814715 43347,6917.958000000001,95.439,541.85,537.7959999999998,0.0
51965.0,STARLINK-3696,PAYLOAD,2022-12-11 05:13:54,15.08833328,0.0003487,53.2183,306.4366,23.3376,336.7774,0.00014209,1.973e-05,0.0,0 STARLINK-3696,1 51965U 22025K   22345.21799712  .00001973  00000-0  14209-3 0  9990,2 51965  53.2183 306.4366 0003487  23.3376 336.7774 15.08833328 43470,6917.901,95.438,542.178,537.354,0.0
